STARLINK-37028          
1 68270U 26055J   26085.25002315 -.00979486  32482-3 -17186-2 0  9992
2 68270  53.1594 254.9108 0000479  82.3899 233.6808 16.01388928  2299
STARLINK-37029          
1 68271U 26055K   26085.25002315 -.00976362  32246-3 -17270-2 0  9995
2 68271  53.1594 254.9155 0000569  85.0295 228.8930 16.01249310  2295
STARLINK-36974          
1 68272U 26055L   26085.25002315 -.00980243  32591-3 -17022-2 0  9997
2 68272  53.1594 254.9053 0000445  93.7571 225.0013 16.01566262  2298
STARLINK-37019          
1 68273U 26055M   26085.25002315 -.00982111  32747-3 -16934-2 0  9998
2 68273  53.1592 254.9011 0000527  84.8082 235.7858 16.01687393  2294
STARLINK-37129          
1 68274U 26055N   26085.25002315 -.00979096  32616-3 -16746-2 0  9993
2 68274  53.1591 254.8970 0000461  89.8121 232.9180 16.01825694  2298
STARLINK-37123          
1 68275U 26055P   26085.25002315 -.00979852  32704-3 -16644-2 0  9999
2 68275  53.1594 254.8933 0000512  85.2958 239.1854 16.01942532  2294
STARLINK-37125          
1 68276U 26055Q   26085.25002315 -.00974482  32441-3 -16390-2 0  9990
2 68276  53.1591 254.8881 0000456  74.4380 252.6053 16.02110000  2299
STARLINK-36989          
1 68277U 26055R   26085.25002315 -.00977198  32765-3 -16015-2 0  9991
2 68277  53.1591 254.8747 0000565 100.7112 232.8218 16.02549756  2295
STARLINK-36982          
1 68278U 26055S   26085.25002315 -.00979410  32849-3 -16179-2 0  9995
2 68278  53.1592 254.8794 0000518  93.9961 237.5351 16.02415842  2290
STARLINK-36934          
1 68279U 26055T   26085.25002315 -.00975788  32581-3 -16249-2 0  9991
2 68279  53.1592 254.8835 0000439  87.5872 241.9148 16.02280114  2294
STARLINK-37070          
1 68280U 26055U   26085.25002315 -.00979097  32943-3 -15884-2 0  9996
2 68280  53.1592 254.8695 0000484  92.1537 243.8377 16.02721946  2298
STARLINK-37134          
1 68281U 26055V   26085.25002315 -.00973390  32706-3 -15513-2 0  9993
2 68281  53.1588 254.8607 0000397  90.9759 249.3961 16.03019861  2299
STARLINK-37160          
1 68282U 26055W   26085.25002315 -.00976964  32871-3 -15702-2 0  9997
2 68282  53.1591 254.8655 0000465  95.6424 242.6483 16.02878971  2293
STARLINK-37124          
1 68283U 26055X   26085.25002315 -.00972901  32722-3 -15392-2 0  9995
2 68283  53.1590 254.8573 0000441  89.7157 252.4657 16.03142449  2290
STARLINK-37159          
1 68284U 26055Y   26085.25002315 -.00966694  32402-3 -15154-2 0  9999
2 68284  53.1590 254.8526 0000372  87.3357 257.0643 16.03295956  2296
STARLINK-36725          
1 68285U 26055Z   26085.25002315 -.00966601  32441-3 -15043-2 0  9998
2 68285  53.1587 254.8487 0000449  92.0497 254.1135 16.03416828  2299
