[{"OBJECT_NAME":"STARLINK-37028","OBJECT_ID":"2026-055J","EPOCH":"2026-03-26T06:00:02.000160","MEAN_MOTION":16.01388928,"ECCENTRICITY":4.798e-5,"INCLINATION":53.1594,"RA_OF_ASC_NODE":254.9108,"ARG_OF_PERICENTER":82.3899,"MEAN_ANOMALY":233.6808,"EPHEMERIS_TYPE":0,"CLASSIFICATION_TYPE":"U","NORAD_CAT_ID":68270,"ELEMENT_SET_NO":999,"REV_AT_EPOCH":229,"BSTAR":-0.0017185551,"MEAN_MOTION_DOT":-0.00979486,"MEAN_MOTION_DDOT":0.0003248224},{"OBJECT_NAME":"STARLINK-37029","OBJECT_ID":"2026-055K","EPOCH":"2026-03-26T06:00:02.000160","MEAN_MOTION":16.0124931,"ECCENTRICITY":5.696e-5,"INCLINATION":53.1594,"RA_OF_ASC_NODE":254.9155,"ARG_OF_PERICENTER":85.0295,"MEAN_ANOMALY":228.893,"EPHEMERIS_TYPE":0,"CLASSIFICATION_TYPE":"U","NORAD_CAT_ID":68271,"ELEMENT_SET_NO":999,"REV_AT_EPOCH":229,"BSTAR":-0.001726985,"MEAN_MOTION_DOT":-0.00976362,"MEAN_MOTION_DDOT":0.00032245673},{"OBJECT_NAME":"STARLINK-36974","OBJECT_ID":"2026-055L","EPOCH":"2026-03-26T06:00:02.000160","MEAN_MOTION":16.01566262,"ECCENTRICITY":4.455e-5,"INCLINATION":53.1594,"RA_OF_ASC_NODE":254.9053,"ARG_OF_PERICENTER":93.7571,"MEAN_ANOMALY":225.0013,"EPHEMERIS_TYPE":0,"CLASSIFICATION_TYPE":"U","NORAD_CAT_ID":68272,"ELEMENT_SET_NO":999,"REV_AT_EPOCH":229,"BSTAR":-0.0017021976,"MEAN_MOTION_DOT":-0.00980243,"MEAN_MOTION_DDOT":0.00032591244},{"OBJECT_NAME":"STARLINK-37019","OBJECT_ID":"2026-055M","EPOCH":"2026-03-26T06:00:02.000160","MEAN_MOTION":16.01687393,"ECCENTRICITY":5.275e-5,"INCLINATION":53.1592,"RA_OF_ASC_NODE":254.9011,"ARG_OF_PERICENTER":84.8082,"MEAN_ANOMALY":235.7858,"EPHEMERIS_TYPE":0,"CLASSIFICATION_TYPE":"U","NORAD_CAT_ID":68273,"ELEMENT_SET_NO":999,"REV_AT_EPOCH":229,"BSTAR":-0.0016934344,"MEAN_MOTION_DOT":-0.00982111,"MEAN_MOTION_DDOT":0.0003274735},{"OBJECT_NAME":"STARLINK-37129","OBJECT_ID":"2026-055N","EPOCH":"2026-03-26T06:00:02.000160","MEAN_MOTION":16.01825694,"ECCENTRICITY":4.617e-5,"INCLINATION":53.1591,"RA_OF_ASC_NODE":254.897,"ARG_OF_PERICENTER":89.8121,"MEAN_ANOMALY":232.918,"EPHEMERIS_TYPE":0,"CLASSIFICATION_TYPE":"U","NORAD_CAT_ID":68274,"ELEMENT_SET_NO":999,"REV_AT_EPOCH":229,"BSTAR":-0.0016745674,"MEAN_MOTION_DOT":-0.00979096,"MEAN_MOTION_DDOT":0.00032615702},{"OBJECT_NAME":"STARLINK-37123","OBJECT_ID":"2026-055P","EPOCH":"2026-03-26T06:00:02.000160","MEAN_MOTION":16.01942532,"ECCENTRICITY":5.124e-5,"INCLINATION":53.1594,"RA_OF_ASC_NODE":254.8933,"ARG_OF_PERICENTER":85.2958,"MEAN_ANOMALY":239.1854,"EPHEMERIS_TYPE":0,"CLASSIFICATION_TYPE":"U","NORAD_CAT_ID":68275,"ELEMENT_SET_NO":999,"REV_AT_EPOCH":229,"BSTAR":-0.0016644258,"MEAN_MOTION_DOT":-0.00979852,"MEAN_MOTION_DDOT":0.00032703599},{"OBJECT_NAME":"STARLINK-37125","OBJECT_ID":"2026-055Q","EPOCH":"2026-03-26T06:00:02.000160","MEAN_MOTION":16.0211,"ECCENTRICITY":4.567e-5,"INCLINATION":53.1591,"RA_OF_ASC_NODE":254.8881,"ARG_OF_PERICENTER":74.438,"MEAN_ANOMALY":252.6053,"EPHEMERIS_TYPE":0,"CLASSIFICATION_TYPE":"U","NORAD_CAT_ID":68276,"ELEMENT_SET_NO":999,"REV_AT_EPOCH":229,"BSTAR":-0.0016389986,"MEAN_MOTION_DOT":-0.00974482,"MEAN_MOTION_DDOT":0.00032440658},{"OBJECT_NAME":"STARLINK-36989","OBJECT_ID":"2026-055R","EPOCH":"2026-03-26T06:00:02.000160","MEAN_MOTION":16.02549756,"ECCENTRICITY":5.654e-5,"INCLINATION":53.1591,"RA_OF_ASC_NODE":254.8747,"ARG_OF_PERICENTER":100.7112,"MEAN_ANOMALY":232.8218,"EPHEMERIS_TYPE":0,"CLASSIFICATION_TYPE":"U","NORAD_CAT_ID":68277,"ELEMENT_SET_NO":999,"REV_AT_EPOCH":229,"BSTAR":-0.0016015052,"MEAN_MOTION_DOT":-0.00977198,"MEAN_MOTION_DDOT":0.00032764539},{"OBJECT_NAME":"STARLINK-36982","OBJECT_ID":"2026-055S","EPOCH":"2026-03-26T06:00:02.000160","MEAN_MOTION":16.02415842,"ECCENTRICITY":5.181e-5,"INCLINATION":53.1592,"RA_OF_ASC_NODE":254.8794,"ARG_OF_PERICENTER":93.9961,"MEAN_ANOMALY":237.5351,"EPHEMERIS_TYPE":0,"CLASSIFICATION_TYPE":"U","NORAD_CAT_ID":68278,"ELEMENT_SET_NO":999,"REV_AT_EPOCH":229,"BSTAR":-0.0016179358,"MEAN_MOTION_DOT":-0.0097941,"MEAN_MOTION_DDOT":0.00032849489},{"OBJECT_NAME":"STARLINK-36934","OBJECT_ID":"2026-055T","EPOCH":"2026-03-26T06:00:02.000160","MEAN_MOTION":16.02280114,"ECCENTRICITY":4.392e-5,"INCLINATION":53.1592,"RA_OF_ASC_NODE":254.8835,"ARG_OF_PERICENTER":87.5872,"MEAN_ANOMALY":241.9148,"EPHEMERIS_TYPE":0,"CLASSIFICATION_TYPE":"U","NORAD_CAT_ID":68279,"ELEMENT_SET_NO":999,"REV_AT_EPOCH":229,"BSTAR":-0.0016248591,"MEAN_MOTION_DOT":-0.00975788,"MEAN_MOTION_DDOT":0.00032580932},{"OBJECT_NAME":"STARLINK-37070","OBJECT_ID":"2026-055U","EPOCH":"2026-03-26T06:00:02.000160","MEAN_MOTION":16.02721946,"ECCENTRICITY":4.847e-5,"INCLINATION":53.1592,"RA_OF_ASC_NODE":254.8695,"ARG_OF_PERICENTER":92.1537,"MEAN_ANOMALY":243.8377,"EPHEMERIS_TYPE":0,"CLASSIFICATION_TYPE":"U","NORAD_CAT_ID":68280,"ELEMENT_SET_NO":999,"REV_AT_EPOCH":229,"BSTAR":-0.0015883749,"MEAN_MOTION_DOT":-0.00979097,"MEAN_MOTION_DDOT":0.0003294318},{"OBJECT_NAME":"STARLINK-37134","OBJECT_ID":"2026-055V","EPOCH":"2026-03-26T06:00:02.000160","MEAN_MOTION":16.03019861,"ECCENTRICITY":3.976e-5,"INCLINATION":53.1588,"RA_OF_ASC_NODE":254.8607,"ARG_OF_PERICENTER":90.9759,"MEAN_ANOMALY":249.3961,"EPHEMERIS_TYPE":0,"CLASSIFICATION_TYPE":"U","NORAD_CAT_ID":68281,"ELEMENT_SET_NO":999,"REV_AT_EPOCH":229,"BSTAR":-0.0015513085,"MEAN_MOTION_DOT":-0.0097339,"MEAN_MOTION_DDOT":0.00032706293},{"OBJECT_NAME":"STARLINK-37160","OBJECT_ID":"2026-055W","EPOCH":"2026-03-26T06:00:02.000160","MEAN_MOTION":16.02878971,"ECCENTRICITY":4.656e-5,"INCLINATION":53.1591,"RA_OF_ASC_NODE":254.8655,"ARG_OF_PERICENTER":95.6424,"MEAN_ANOMALY":242.6483,"EPHEMERIS_TYPE":0,"CLASSIFICATION_TYPE":"U","NORAD_CAT_ID":68282,"ELEMENT_SET_NO":999,"REV_AT_EPOCH":229,"BSTAR":-0.0015701694,"MEAN_MOTION_DOT":-0.00976964,"MEAN_MOTION_DDOT":0.00032871483},{"OBJECT_NAME":"STARLINK-37124","OBJECT_ID":"2026-055X","EPOCH":"2026-03-26T06:00:02.000160","MEAN_MOTION":16.03142449,"ECCENTRICITY":4.417e-5,"INCLINATION":53.159,"RA_OF_ASC_NODE":254.8573,"ARG_OF_PERICENTER":89.7157,"MEAN_ANOMALY":252.4657,"EPHEMERIS_TYPE":0,"CLASSIFICATION_TYPE":"U","NORAD_CAT_ID":68283,"ELEMENT_SET_NO":999,"REV_AT_EPOCH":229,"BSTAR":-0.0015392311,"MEAN_MOTION_DOT":-0.00972901,"MEAN_MOTION_DDOT":0.00032721845},{"OBJECT_NAME":"STARLINK-37159","OBJECT_ID":"2026-055Y","EPOCH":"2026-03-26T06:00:02.000160","MEAN_MOTION":16.03295956,"ECCENTRICITY":3.722e-5,"INCLINATION":53.159,"RA_OF_ASC_NODE":254.8526,"ARG_OF_PERICENTER":87.3357,"MEAN_ANOMALY":257.0643,"EPHEMERIS_TYPE":0,"CLASSIFICATION_TYPE":"U","NORAD_CAT_ID":68284,"ELEMENT_SET_NO":999,"REV_AT_EPOCH":229,"BSTAR":-0.0015153541,"MEAN_MOTION_DOT":-0.00966694,"MEAN_MOTION_DDOT":0.00032401793},{"OBJECT_NAME":"STARLINK-36725","OBJECT_ID":"2026-055Z","EPOCH":"2026-03-26T06:00:02.000160","MEAN_MOTION":16.03416828,"ECCENTRICITY":4.49e-5,"INCLINATION":53.1587,"RA_OF_ASC_NODE":254.8487,"ARG_OF_PERICENTER":92.0497,"MEAN_ANOMALY":254.1135,"EPHEMERIS_TYPE":0,"CLASSIFICATION_TYPE":"U","NORAD_CAT_ID":68285,"ELEMENT_SET_NO":999,"REV_AT_EPOCH":229,"BSTAR":-0.0015042829,"MEAN_MOTION_DOT":-0.00966601,"MEAN_MOTION_DDOT":0.00032440515}]
